start=new Date('2022-12-27T00:00:00.000Z').valueOf();
sats=[{"PERIOD":"95.592","OBJECT_TYPE":"PAYLOAD","INCLINATION":"53.0548","DECAY_DATE":null,"TLE_LINE2":"2 48668  53.0548 319.8512 0001740  73.4881 286.6299 15.06407368 87648","ECCENTRICITY":"0.00017400","OBJECT_ID":"2021-044AG","REF_FRAME":"TEME","MEAN_ANOMALY":"286.6299","TLE_LINE1":"1 48668U 21044AG  22360.60378628  .00001782  00000-0  13848-3 0  9991","FILE":"3723236","SITE":"AFETR","RA_OF_ASC_NODE":"319.8512","BSTAR":"0.00013848000000","ELEMENT_SET_NO":"999","RCS_SIZE":"LARGE","EPHEMERIS_TYPE":"0","PERIAPSIS":"545.986","LAUNCH_DATE":"2021-05-26","GP_ID":"221524115","COUNTRY_CODE":"US","TIME_SYSTEM":"UTC","MEAN_MOTION_DOT":"0.00001782","CENTER_NAME":"EARTH","MEAN_MOTION":"15.06407368","NORAD_CAT_ID":"48668","MEAN_ELEMENT_THEORY":"SGP4","SEMIMAJOR_AXIS":"6925.326","OBJECT_NAME":"STARLINK-2738","CLASSIFICATION_TYPE":"U","REV_AT_EPOCH":"8764","EPOCH":"2022-12-26T14:29:27.134592","APOAPSIS":"548.396","ARG_OF_PERICENTER":"73.4881","MEAN_MOTION_DDOT":"0.0000000000000"},{"CENTER_NAME":"EARTH","MEAN_MOTION_DOT":"-0.00000005","TIME_SYSTEM":"UTC","NORAD_CAT_ID":"48669","MEAN_MOTION":"15.06399292","SEMIMAJOR_AXIS":"6925.351","MEAN_ELEMENT_THEORY":"SGP4","OBJECT_NAME":"STARLINK-2707","REV_AT_EPOCH":"8767","CLASSIFICATION_TYPE":"U","EPOCH":"2022-12-26T20:46:18.494112","MEAN_MOTION_DDOT":"0.0000000000000","ARG_OF_PERICENTER":"59.2106","APOAPSIS":"548.226","PERIOD":"95.592","OBJECT_TYPE":"PAYLOAD","DECAY_DATE":null,"INCLINATION":"53.0570","FILE":"3723236","TLE_LINE1":"1 48669U 21044AH  22360.86549183 -.00000005  00000-0  18577-4 0  9999","MEAN_ANOMALY":"300.9026","REF_FRAME":"TEME","OBJECT_ID":"2021-044AH","ECCENTRICITY":"0.00014590","TLE_LINE2":"2 48669  53.0570 318.6686 0001459  59.2106 300.9026 15.06399292 87679","SITE":"AFETR","ELEMENT_SET_NO":"999","BSTAR":"0.00001857700000","RA_OF_ASC_NODE":"318.6686","LAUNCH_DATE":"2021-05-26","PERIAPSIS":"546.205","EPHEMERIS_TYPE":"0","RCS_SIZE":"LARGE","COUNTRY_CODE":"US","GP_ID":"221523866"},{"RA_OF_ASC_NODE":"318.6868","ELEMENT_SET_NO":"999","BSTAR":"0.00031562000000","SITE":"AFETR","GP_ID":"221522614","COUNTRY_CODE":"US","EPHEMERIS_TYPE":"0","RCS_SIZE":"LARGE","PERIAPSIS":"545.922","LAUNCH_DATE":"2021-05-26","OBJECT_TYPE":"PAYLOAD","PERIOD":"95.592","ECCENTRICITY":"0.00018330","TLE_LINE2":"2 48670  53.0558 318.6868 0001833  61.1848 298.9325 15.06407286 87671","REF_FRAME":"TEME","OBJECT_ID":"2021-044AJ","MEAN_ANOMALY":"298.9325","TLE_LINE1":"1 48670U 21044AJ  22360.86180528  .00004424  00000-0  31562-3 0  9991","FILE":"3723236","INCLINATION":"53.0558","DECAY_DATE":null,"CLASSIFICATION_TYPE":"U","REV_AT_EPOCH":"8767","OBJECT_NAME":"STARLINK-2763","APOAPSIS":"548.461","ARG_OF_PERICENTER":"61.1848","MEAN_MOTION_DDOT":"0.0000000000000","EPOCH":"2022-12-26T20:40:59.976192","MEAN_MOTION":"15.06407286","NORAD_CAT_ID":"48670","MEAN_MOTION_DOT":"0.00004424","TIME_SYSTEM":"UTC","CENTER_NAME":"EARTH","SEMIMAJOR_AXIS":"6925.326","MEAN_ELEMENT_THEORY":"SGP4"},{"SITE":"AFETR","ELEMENT_SET_NO":"999","BSTAR":"-0.00005746200000","RA_OF_ASC_NODE":"319.9074","EPHEMERIS_TYPE":"0","RCS_SIZE":"LARGE","LAUNCH_DATE":"2021-05-26","PERIAPSIS":"545.880","COUNTRY_CODE":"US","GP_ID":"221496861","PERIOD":"95.593","OBJECT_TYPE":"PAYLOAD","DECAY_DATE":null,"INCLINATION":"53.0557","TLE_LINE1":"1 48671U 21044AK  22360.59273658 -.00001137  00000-0 -57462-4 0  9997","FILE":"3722996","MEAN_ANOMALY":"300.9884","ECCENTRICITY":"0.00019530","TLE_LINE2":"2 48671  53.0557 319.9074 0001953  59.1297 300.9884 15.06393697 88475","REF_FRAME":"TEME","OBJECT_ID":"2021-044AK","OBJECT_NAME":"STARLINK-2745","CLASSIFICATION_TYPE":"U","REV_AT_EPOCH":"8847","EPOCH":"2022-12-26T14:13:32.440512","ARG_OF_PERICENTER":"59.1297","MEAN_MOTION_DDOT":"0.0000000000000","APOAPSIS":"548.585","CENTER_NAME":"EARTH","MEAN_MOTION_DOT":"-0.00001137","TIME_SYSTEM":"UTC","MEAN_MOTION":"15.06393697","NORAD_CAT_ID":"48671","SEMIMAJOR_AXIS":"6925.368","MEAN_ELEMENT_THEORY":"SGP4"},{"CENTER_NAME":"EARTH","TIME_SYSTEM":"UTC","MEAN_MOTION_DOT":"-0.00001260","NORAD_CAT_ID":"48672","MEAN_MOTION":"15.06397315","MEAN_ELEMENT_THEORY":"SGP4","SEMIMAJOR_AXIS":"6925.357","OBJECT_NAME":"STARLINK-2705","REV_AT_EPOCH":"8853","CLASSIFICATION_TYPE":"U","EPOCH":"2022-12-26T14:08:13.158816","MEAN_MOTION_DDOT":"0.0000000000000","ARG_OF_PERICENTER":"40.5386","APOAPSIS":"548.450","PERIOD":"95.592","OBJECT_TYPE":"PAYLOAD","DECAY_DATE":null,"INCLINATION":"53.0536","MEAN_ANOMALY":"319.5735","TLE_LINE1":"1 48672U 21044AL  22360.58904119 -.00001260  00000-0 -65726-4 0  9999","FILE":"3722998","OBJECT_ID":"2021-044AL","REF_FRAME":"TEME","TLE_LINE2":"2 48672  53.0536 319.9181 0001774  40.5386 319.5735 15.06397315 88535","ECCENTRICITY":"0.00017740","SITE":"AFETR","BSTAR":"-0.00006572600000","ELEMENT_SET_NO":"999","RA_OF_ASC_NODE":"319.9181","PERIAPSIS":"545.993","LAUNCH_DATE":"2021-05-26","RCS_SIZE":"LARGE","EPHEMERIS_TYPE":"0","COUNTRY_CODE":"US","GP_ID":"221496384"},{"PERIAPSIS":"545.692","LAUNCH_DATE":"2021-05-26","EPHEMERIS_TYPE":"0","RCS_SIZE":"LARGE","GP_ID":"221524366","COUNTRY_CODE":"US","SITE":"AFETR","RA_OF_ASC_NODE":"318.4423","ELEMENT_SET_NO":"999","BSTAR":"-0.00057275000000","INCLINATION":"53.0537","DECAY_DATE":null,"OBJECT_ID":"2021-044AM","REF_FRAME":"TEME","TLE_LINE2":"2 48673  53.0537 318.4423 0001967  40.9777 319.1359 15.06452154 87688","ECCENTRICITY":"0.00019670","TLE_LINE1":"1 48673U 21044AM  22360.91707409 -.00008815  00000-0 -57275-3 0  9992","FILE":"3723236","MEAN_ANOMALY":"319.1359","PERIOD":"95.589","OBJECT_TYPE":"PAYLOAD","EPOCH":"2022-12-26T22:00:35.201376","APOAPSIS":"548.416","MEAN_MOTION_DDOT":"0.0000000000000","ARG_OF_PERICENTER":"40.9777","OBJECT_NAME":"STARLINK-2711","REV_AT_EPOCH":"8768","CLASSIFICATION_TYPE":"U","SEMIMAJOR_AXIS":"6925.189","MEAN_ELEMENT_THEORY":"SGP4","TIME_SYSTEM":"UTC","MEAN_MOTION_DOT":"-0.00008815","CENTER_NAME":"EARTH","NORAD_CAT_ID":"48673","MEAN_MOTION":"15.06452154"},{"REF_FRAME":"TEME","OBJECT_ID":"2021-044AN","TLE_LINE2":"2 48674  53.0556 318.4640 0001968  48.4691 311.6466 15.06402008 87689","ECCENTRICITY":"0.00019680","MEAN_ANOMALY":"311.6466","TLE_LINE1":"1 48674U 21044AN  22360.91246359  .00000702  00000-0  66014-4 0  9992","FILE":"3723236","INCLINATION":"53.0556","DECAY_DATE":null,"OBJECT_TYPE":"PAYLOAD","PERIOD":"95.592","GP_ID":"221523114","COUNTRY_CODE":"US","LAUNCH_DATE":"2021-05-26","PERIAPSIS":"545.844","EPHEMERIS_TYPE":"0","RCS_SIZE":"LARGE","RA_OF_ASC_NODE":"318.4640","BSTAR":"0.00006601400000","ELEMENT_SET_NO":"999","SITE":"AFETR","SEMIMAJOR_AXIS":"6925.342","MEAN_ELEMENT_THEORY":"SGP4","NORAD_CAT_ID":"48674","MEAN_MOTION":"15.06402008","MEAN_MOTION_DOT":"0.00000702","TIME_SYSTEM":"UTC","CENTER_NAME":"EARTH","APOAPSIS":"548.570","MEAN_MOTION_DDOT":"0.0000000000000","ARG_OF_PERICENTER":"48.4691","EPOCH":"2022-12-26T21:53:56.854176","REV_AT_EPOCH":"8768","CLASSIFICATION_TYPE":"U","OBJECT_NAME":"STARLINK-2712"},{"NORAD_CAT_ID":"48675","MEAN_MOTION":"15.06396867","MEAN_MOTION_DOT":"0.00000076","TIME_SYSTEM":"UTC","CENTER_NAME":"EARTH","MEAN_ELEMENT_THEORY":"SGP4","SEMIMAJOR_AXIS":"6925.358","REV_AT_EPOCH":"8768","CLASSIFICATION_TYPE":"U","OBJECT_NAME":"STARLINK-2737","APOAPSIS":"548.566","MEAN_MOTION_DDOT":"0.0000000000000","ARG_OF_PERICENTER":"40.2755","EPOCH":"2022-12-26T21:50:00.636576","OBJECT_TYPE":"PAYLOAD","PERIOD":"95.592","REF_FRAME":"TEME","OBJECT_ID":"2021-044AP","TLE_LINE2":"2 48675  53.0535 318.4864 0001939  40.2755 319.8377 15.06396867 87680","ECCENTRICITY":"0.00019390","FILE":"3723236","TLE_LINE1":"1 48675U 21044AP  22360.90972959  .00000076  00000-0  24043-4 0  9994","MEAN_ANOMALY":"319.8377","INCLINATION":"53.0535","DECAY_DATE":null,"RA_OF_ASC_NODE":"318.4864","BSTAR":"0.00002404300000","ELEMENT_SET_NO":"999","SITE":"AFETR","GP_ID":"221523364","COUNTRY_CODE":"US","LAUNCH_DATE":"2021-05-26","PERIAPSIS":"545.880","RCS_SIZE":"MEDIUM","EPHEMERIS_TYPE":"0"},{"BSTAR":"0.00028704000000","ELEMENT_SET_NO":"999","RA_OF_ASC_NODE":"320.8790","SITE":"AFETR","COUNTRY_CODE":"US","GP_ID":"221490587","EPHEMERIS_TYPE":"0","RCS_SIZE":"LARGE","PERIAPSIS":"546.235","LAUNCH_DATE":"2021-05-26","OBJECT_TYPE":"PAYLOAD","PERIOD":"95.592","TLE_LINE1":"1 48676U 21044AQ  22360.37525556  .00003997  00000-0  28704-3 0  9995","FILE":"3722937","MEAN_ANOMALY":"286.0612","ECCENTRICITY":"0.00014070","TLE_LINE2":"2 48676  53.0544 320.8790 0001407  74.0532 286.0612 15.06401404 87607","OBJECT_ID":"2021-044AQ","REF_FRAME":"TEME","DECAY_DATE":null,"INCLINATION":"53.0544","CLASSIFICATION_TYPE":"U","REV_AT_EPOCH":"8760","OBJECT_NAME":"STARLINK-2746","ARG_OF_PERICENTER":"74.0532","MEAN_MOTION_DDOT":"0.0000000000000","APOAPSIS":"548.184","EPOCH":"2022-12-26T09:00:22.080384","MEAN_MOTION":"15.06401404","NORAD_CAT_ID":"48676","CENTER_NAME":"EARTH","TIME_SYSTEM":"UTC","MEAN_MOTION_DOT":"0.00003997","MEAN_ELEMENT_THEORY":"SGP4","SEMIMAJOR_AXIS":"6925.344"},{"PERIOD":"95.592","OBJECT_TYPE":"PAYLOAD","INCLINATION":"53.0564","DECAY_DATE":null,"REF_FRAME":"TEME","OBJECT_ID":"2021-044AR","ECCENTRICITY":"0.00019740","TLE_LINE2":"2 48677  53.0564 320.8996 0001974  56.8373 303.2805 15.06399004 87606","TLE_LINE1":"1 48677U 21044AR  22360.37062897 -.00000176  00000-0  70840-5 0  9997","MEAN_ANOMALY":"303.2805","FILE":"3722937","SITE":"AFETR","RA_OF_ASC_NODE":"320.8996","ELEMENT_SET_NO":"999","BSTAR":"0.00000708400000","PERIAPSIS":"545.850","LAUNCH_DATE":"2021-05-26","RCS_SIZE":"LARGE","EPHEMERIS_TYPE":"0","GP_ID":"221491337","COUNTRY_CODE":"US","TIME_SYSTEM":"UTC","MEAN_MOTION_DOT":"-0.00000176","CENTER_NAME":"EARTH","NORAD_CAT_ID":"48677","MEAN_MOTION":"15.06399004","SEMIMAJOR_AXIS":"6925.352","MEAN_ELEMENT_THEORY":"SGP4","OBJECT_NAME":"STARLINK-2719","REV_AT_EPOCH":"8760","CLASSIFICATION_TYPE":"U","EPOCH":"2022-12-26T08:53:42.343008","APOAPSIS":"548.584","MEAN_MOTION_DDOT":"0.0000000000000","ARG_OF_PERICENTER":"56.8373"}];
